1 11417U 79058A   08037.75384593  .00001021  00000-0  10000-3 0  3346
2 11417  68.1065 271.3762 6130391  54.9854 348.2642  2.01391526 98823
